STARLINK-2305_new
1 17989C 21024N   21326.17362587 -.00021558  00000-0 -14444-2 0  3265
2 17989  53.0550  87.9491 0001592  53.6547  10.9000 15.06420141    17
STARLINK-2305_old
1 27989C 21024N   21325.15398365  .00004193  00000-0  28094-3 0  3255
2 27989  53.0545  92.5261 0001547  53.6452 238.2857 15.06395286    19
